{
    "links": {
        "self": "http://www.neowsapp.com/rest/v1/neo/3780736?api_key=iIulBulltgU6a56xZRHN4H3l9WmuAYTsLGpBGhQ2"
    },
    "id": "3780736",
    "neo_reference_id": "3780736",
    "name": "(2017 QR1)",
    "designation": "2017 QR1",
    "nasa_jpl_url": "http://ssd.jpl.nasa.gov/sbdb.cgi?sstr=3780736",
    "absolute_magnitude_h": 20.1,
    "estimated_diameter": {
        "kilometers": {
            "estimated_diameter_min": 0.2538370294,
            "estimated_diameter_max": 0.5675968529
        },
        "meters": {
            "estimated_diameter_min": 253.8370293645,
            "estimated_diameter_max": 567.5968528656
        },
        "miles": {
            "estimated_diameter_min": 0.1577269688,
            "estimated_diameter_max": 0.3526882241
        },
        "feet": {
            "estimated_diameter_min": 832.7986794202,
            "estimated_diameter_max": 1862.1944587557
        }
    },
    "is_potentially_hazardous_asteroid": false,
    "close_approach_data": [
        {
            "close_approach_date": "2017-09-06",
            "close_approach_date_full": "2017-Sep-06 12:36",
            "epoch_date_close_approach": 1504701360000,
            "relative_velocity": {
                "kilometers_per_second": "21.4876370578",
                "kilometers_per_hour": "77355.4934079749",
                "miles_per_hour": "48065.6953345275"
            },
            "miss_distance": {
                "astronomical": "0.3764505389",
                "lunar": "146.4392596321",
                "kilometers": "56316198.779792143",
                "miles": "34993263.2625838534"
            },
            "orbiting_body": "Earth"
        }
    ],
    "orbital_data": {
        "orbit_id": "5",
        "orbit_determination_date": "2017-09-15 06:23:19",
        "first_observation_date": "2017-08-17",
        "last_observation_date": "2017-08-25",
        "data_arc_in_days": 8,
        "observations_used": 49,
        "orbit_uncertainty": "9",
        "minimum_orbit_intersection": ".255344",
        "jupiter_tisserand_invariant": "4.367",
        "epoch_osculation": "2457983.5",
        "eccentricity": ".6865398556084639",
        "semi_major_axis": "1.420538469875507",
        "inclination": "22.04919504937289",
        "ascending_node_longitude": "236.8353165091135",
        "orbital_period": "618.4120252599498",
        "perihelion_distance": ".4452821938809081",
        "perihelion_argument": "205.2184858609918",
        "aphelion_distance": "2.395794745870105",
        "perihelion_time": "2458043.435148468490",
        "mean_anomaly": "325.1095829846021",
        "mean_motion": ".5821361572790791",
        "equinox": "J2000",
        "orbit_class": {
            "orbit_class_type": "APO",
            "orbit_class_description": "Near-Earth asteroid orbits which cross the Earth’s orbit similar to that of 1862 Apollo",
            "orbit_class_range": "a (semi-major axis) > 1.0 AU; q (perihelion) < 1.017 AU"
        }
    },
    "is_sentry_object": false
}